start=new Date('2021-09-27T00:00:00.000Z').valueOf();
sats=[{"TLE_LINE1":"1 44716U 19074D   21269.74387222  .00002709  00000-0  20057-3 0  9993","ELEMENT_SET_NO":"999","MEAN_MOTION_DOT":"0.00002709","EPHEMERIS_TYPE":"0","TLE_LINE2":"2 44716  53.0548 281.2742 0000966  69.1552 290.9541 15.06414312103814","CLASSIFICATION_TYPE":"U","PERIOD":"95.591","EPOCH":"2021-09-26T17:51:10.559808","NORAD_CAT_ID":"44716","INCLINATION":"53.0548","BSTAR":"0.00020057000000","OBJECT_ID":"2019-074D","MEAN_ANOMALY":"290.9541","COUNTRY_CODE":"US","CENTER_NAME":"EARTH","RCS_SIZE":"LARGE","ECCENTRICITY":"0.00009660","TIME_SYSTEM":"UTC","OBJECT_NAME":"STARLINK-1010","DECAY_DATE":null,"OBJECT_TYPE":"PAYLOAD","SEMIMAJOR_AXIS":"6925.305","PERIAPSIS":"546.501","REV_AT_EPOCH":"10381","GP_ID":"185580645","APOAPSIS":"547.839","RA_OF_ASC_NODE":"281.2742","FILE":"3129566","SITE":"AFETR","ARG_OF_PERICENTER":"69.1552","MEAN_MOTION_DDOT":"0.0000000000000","MEAN_MOTION":"15.06414312","MEAN_ELEMENT_THEORY":"SGP4","LAUNCH_DATE":"2019-11-11","REF_FRAME":"TEME"},{"ARG_OF_PERICENTER":"81.0598","MEAN_MOTION_DDOT":"0.0000000000000","MEAN_MOTION":"15.06391713","MEAN_ELEMENT_THEORY":"SGP4","REF_FRAME":"TEME","LAUNCH_DATE":"2019-11-11","ELEMENT_SET_NO":"999","MEAN_MOTION_DOT":"-0.00000203","TLE_LINE1":"1 44717U 19074E   21269.41029389 -.00000203  00000-0  52739-5 0  9997","EPOCH":"2021-09-26T09:50:49.392096","NORAD_CAT_ID":"44717","EPHEMERIS_TYPE":"0","TLE_LINE2":"2 44717  53.0540 302.7816 0000966  81.0598 279.0500 15.06391713103677","CLASSIFICATION_TYPE":"U","PERIOD":"95.593","INCLINATION":"53.0540","COUNTRY_CODE":"US","MEAN_ANOMALY":"279.0500","RCS_SIZE":"LARGE","CENTER_NAME":"EARTH","OBJECT_ID":"2019-074E","BSTAR":"0.00000527390000","OBJECT_NAME":"STARLINK-1011","TIME_SYSTEM":"UTC","ECCENTRICITY":"0.00009660","PERIAPSIS":"546.570","DECAY_DATE":null,"OBJECT_TYPE":"PAYLOAD","SEMIMAJOR_AXIS":"6925.374","REV_AT_EPOCH":"10367","GP_ID":"185557735","SITE":"AFETR","FILE":"3129430","APOAPSIS":"547.908","RA_OF_ASC_NODE":"302.7816"},{"ARG_OF_PERICENTER":"70.4090","LAUNCH_DATE":"2019-11-11","REF_FRAME":"TEME","MEAN_ELEMENT_THEORY":"SGP4","MEAN_MOTION":"15.06409311","MEAN_MOTION_DDOT":"0.0000000000000","OBJECT_ID":"2019-074F","BSTAR":"0.00013579000000","COUNTRY_CODE":"US","MEAN_ANOMALY":"289.7029","RCS_SIZE":"LARGE","CENTER_NAME":"EARTH","INCLINATION":"53.0541","EPHEMERIS_TYPE":"0","TLE_LINE2":"2 44718  53.0541 283.2066 0001208  70.4090 289.7029 15.06409311103766","CLASSIFICATION_TYPE":"U","PERIOD":"95.592","EPOCH":"2021-09-26T07:35:28.432320","NORAD_CAT_ID":"44718","TLE_LINE1":"1 44718U 19074F   21269.31630130  .00001742  00000-0  13579-3 0  9994","ELEMENT_SET_NO":"999","MEAN_MOTION_DOT":"0.00001742","APOAPSIS":"548.022","RA_OF_ASC_NODE":"283.2066","FILE":"3129258","SITE":"AFETR","REV_AT_EPOCH":"10376","GP_ID":"185549497","DECAY_DATE":null,"OBJECT_TYPE":"PAYLOAD","SEMIMAJOR_AXIS":"6925.320","PERIAPSIS":"546.348","ECCENTRICITY":"0.00012080","OBJECT_NAME":"STARLINK-1012","TIME_SYSTEM":"UTC"},{"SEMIMAJOR_AXIS":"6922.310","OBJECT_TYPE":"PAYLOAD","DECAY_DATE":null,"PERIAPSIS":"540.215","ECCENTRICITY":"0.00057220","TIME_SYSTEM":"UTC","OBJECT_NAME":"STARLINK-1013","RA_OF_ASC_NODE":"281.0781","APOAPSIS":"548.136","SITE":"AFETR","FILE":"3129566","GP_ID":"185579894","REV_AT_EPOCH":"10496","PERIOD":"95.529","TLE_LINE2":"2 44719  53.0538 281.0781 0005722 332.0813  27.9868 15.07391804104962","EPHEMERIS_TYPE":"0","CLASSIFICATION_TYPE":"U","NORAD_CAT_ID":"44719","EPOCH":"2021-09-26T18:53:40.648992","TLE_LINE1":"1 44719U 19074G   21269.78727603  .00142069  00000-0  91167-2 0  9994","MEAN_MOTION_DOT":"0.00142069","ELEMENT_SET_NO":"999","OBJECT_ID":"2019-074G","BSTAR":"0.00911670000000","RCS_SIZE":"LARGE","CENTER_NAME":"EARTH","MEAN_ANOMALY":"27.9868","COUNTRY_CODE":"US","INCLINATION":"53.0538","MEAN_MOTION":"15.07391804","MEAN_ELEMENT_THEORY":"SGP4","MEAN_MOTION_DDOT":"0.0000000000000","LAUNCH_DATE":"2019-11-11","REF_FRAME":"TEME","ARG_OF_PERICENTER":"332.0813"},{"REF_FRAME":"TEME","LAUNCH_DATE":"2019-11-11","MEAN_MOTION_DDOT":"0.0000000000000","MEAN_MOTION":"15.06388141","MEAN_ELEMENT_THEORY":"SGP4","ARG_OF_PERICENTER":"63.5790","REV_AT_EPOCH":"10383","GP_ID":"185580146","SITE":"AFETR","FILE":"3129566","APOAPSIS":"547.846","RA_OF_ASC_NODE":"281.3106","TIME_SYSTEM":"UTC","OBJECT_NAME":"STARLINK-1014","ECCENTRICITY":"0.00008610","PERIAPSIS":"546.654","DECAY_DATE":null,"SEMIMAJOR_AXIS":"6925.385","OBJECT_TYPE":"PAYLOAD","INCLINATION":"53.0539","MEAN_ANOMALY":"296.5287","COUNTRY_CODE":"US","CENTER_NAME":"EARTH","RCS_SIZE":"LARGE","BSTAR":"-0.00003337900000","OBJECT_ID":"2019-074H","ELEMENT_SET_NO":"999","MEAN_MOTION_DOT":"-0.00000778","TLE_LINE1":"1 44720U 19074H   21269.74018460 -.00000778  00000-0 -33379-4 0  9991","EPOCH":"2021-09-26T17:45:51.949440","NORAD_CAT_ID":"44720","TLE_LINE2":"2 44720  53.0539 281.3106 0000861  63.5790 296.5287 15.06388141103831","EPHEMERIS_TYPE":"0","CLASSIFICATION_TYPE":"U","PERIOD":"95.593"},{"LAUNCH_DATE":"2019-11-11","REF_FRAME":"TEME","MEAN_MOTION":"15.06398338","MEAN_ELEMENT_THEORY":"SGP4","MEAN_MOTION_DDOT":"0.0000000000000","ARG_OF_PERICENTER":"59.9153","RA_OF_ASC_NODE":"281.3470","APOAPSIS":"547.899","SITE":"AFETR","FILE":"3129566","GP_ID":"185580896","REV_AT_EPOCH":"10382","OBJECT_TYPE":"PAYLOAD","SEMIMAJOR_AXIS":"6925.354","DECAY_DATE":null,"PERIAPSIS":"546.538","ECCENTRICITY":"0.00009830","OBJECT_NAME":"STARLINK-1015","TIME_SYSTEM":"UTC","BSTAR":"-0.00001682300000","OBJECT_ID":"2019-074J","RCS_SIZE":"LARGE","CENTER_NAME":"EARTH","COUNTRY_CODE":"US","MEAN_ANOMALY":"300.1933","INCLINATION":"53.0525","PERIOD":"95.592","EPHEMERIS_TYPE":"0","TLE_LINE2":"2 44721  53.0525 281.3470 0000983  59.9153 300.1933 15.06398338103826","CLASSIFICATION_TYPE":"U","NORAD_CAT_ID":"44721","EPOCH":"2021-09-26T17:29:56.463936","TLE_LINE1":"1 44721U 19074J   21269.72912574 -.00000532  00000-0 -16823-4 0  9992","MEAN_MOTION_DOT":"-0.00000532","ELEMENT_SET_NO":"999"},{"ARG_OF_PERICENTER":"72.4437","MEAN_MOTION":"15.06390950","MEAN_ELEMENT_THEORY":"SGP4","MEAN_MOTION_DDOT":"0.0000000000000","LAUNCH_DATE":"2019-11-11","REF_FRAME":"TEME","PERIOD":"95.593","TLE_LINE2":"2 44722  53.0537 281.3348 0000788  72.4437 287.6638 15.06390950103836","CLASSIFICATION_TYPE":"U","EPHEMERIS_TYPE":"0","NORAD_CAT_ID":"44722","EPOCH":"2021-09-26T17:35:14.982720","TLE_LINE1":"1 44722U 19074K   21269.73281230 -.00000439  00000-0 -10598-4 0  9991","MEAN_MOTION_DOT":"-0.00000439","ELEMENT_SET_NO":"999","OBJECT_ID":"2019-074K","BSTAR":"-0.00001059800000","CENTER_NAME":"EARTH","RCS_SIZE":"LARGE","MEAN_ANOMALY":"287.6638","COUNTRY_CODE":"US","INCLINATION":"53.0537","OBJECT_TYPE":"PAYLOAD","SEMIMAJOR_AXIS":"6925.376","DECAY_DATE":null,"PERIAPSIS":"546.696","ECCENTRICITY":"0.00007880","OBJECT_NAME":"STARLINK-1016","TIME_SYSTEM":"UTC","RA_OF_ASC_NODE":"281.3348","APOAPSIS":"547.787","FILE":"3129566","SITE":"AFETR","GP_ID":"185579145","REV_AT_EPOCH":"10383"},{"LAUNCH_DATE":"2019-11-11","REF_FRAME":"TEME","MEAN_ELEMENT_THEORY":"SGP4","MEAN_MOTION":"15.06401238","MEAN_MOTION_DDOT":"0.0000000000000","ARG_OF_PERICENTER":"71.4037","RA_OF_ASC_NODE":"281.2673","APOAPSIS":"547.860","FILE":"3129566","SITE":"AFETR","GP_ID":"185579395","REV_AT_EPOCH":"10383","SEMIMAJOR_AXIS":"6925.345","OBJECT_TYPE":"PAYLOAD","DECAY_DATE":null,"PERIAPSIS":"546.559","ECCENTRICITY":"0.00009390","OBJECT_NAME":"STARLINK-1017","TIME_SYSTEM":"UTC","BSTAR":"0.00012919000000","OBJECT_ID":"2019-074L","RCS_SIZE":"LARGE","CENTER_NAME":"EARTH","COUNTRY_CODE":"US","MEAN_ANOMALY":"288.7054","INCLINATION":"53.0555","PERIOD":"95.592","TLE_LINE2":"2 44723  53.0555 281.2673 0000939  71.4037 288.7054 15.06401238103836","CLASSIFICATION_TYPE":"U","EPHEMERIS_TYPE":"0","NORAD_CAT_ID":"44723","EPOCH":"2021-09-26T17:56:27.892320","TLE_LINE1":"1 44723U 19074L   21269.74754505  .00001644  00000-0  12919-3 0  9998","MEAN_MOTION_DOT":"0.00001644","ELEMENT_SET_NO":"999"},{"DECAY_DATE":null,"OBJECT_TYPE":"PAYLOAD","SEMIMAJOR_AXIS":"6925.343","PERIAPSIS":"546.350","ECCENTRICITY":"0.00012390","TIME_SYSTEM":"UTC","OBJECT_NAME":"STARLINK-1019","APOAPSIS":"548.066","RA_OF_ASC_NODE":"283.2244","FILE":"3129258","SITE":"AFETR","REV_AT_EPOCH":"10376","GP_ID":"185548496","TLE_LINE2":"2 44724  53.0545 283.2244 0001239  82.8318 277.2812 15.06401932103762","CLASSIFICATION_TYPE":"U","EPHEMERIS_TYPE":"0","PERIOD":"95.592","EPOCH":"2021-09-26T07:30:09.160992","NORAD_CAT_ID":"44724","TLE_LINE1":"1 44724U 19074M   21269.31260603  .00000437  00000-0  48216-4 0  9992","ELEMENT_SET_NO":"999","MEAN_MOTION_DOT":"0.00000437","OBJECT_ID":"2019-074M","BSTAR":"0.00004821600000","MEAN_ANOMALY":"277.2812","COUNTRY_CODE":"US","RCS_SIZE":"LARGE","CENTER_NAME":"EARTH","INCLINATION":"53.0545","MEAN_ELEMENT_THEORY":"SGP4","MEAN_MOTION":"15.06401932","MEAN_MOTION_DDOT":"0.0000000000000","LAUNCH_DATE":"2019-11-11","REF_FRAME":"TEME","ARG_OF_PERICENTER":"82.8318"},{"INCLINATION":"53.0540","OBJECT_ID":"2019-074N","BSTAR":"0.00001698900000","MEAN_ANOMALY":"264.6091","COUNTRY_CODE":"US","RCS_SIZE":"LARGE","CENTER_NAME":"EARTH","TLE_LINE1":"1 44725U 19074N   21269.38448407 -.00000028  00000-0  16989-4 0  9999","ELEMENT_SET_NO":"999","MEAN_MOTION_DOT":"-0.00000028","EPHEMERIS_TYPE":"0","TLE_LINE2":"2 44725  53.0540 302.8979 0001010  95.5013 264.6091 15.06392100103496","CLASSIFICATION_TYPE":"U","PERIOD":"95.593","EPOCH":"2021-09-26T09:13:39.423648","NORAD_CAT_ID":"44725","REV_AT_EPOCH":"10349","GP_ID":"185549246","APOAPSIS":"547.937","RA_OF_ASC_NODE":"302.8979","SITE":"AFETR","FILE":"3129258","ECCENTRICITY":"0.00010100","OBJECT_NAME":"STARLINK-1020","TIME_SYSTEM":"UTC","DECAY_DATE":null,"OBJECT_TYPE":"PAYLOAD","SEMIMAJOR_AXIS":"6925.373","PERIAPSIS":"546.538","ARG_OF_PERICENTER":"95.5013","LAUNCH_DATE":"2019-11-11","REF_FRAME":"TEME","MEAN_MOTION_DDOT":"0.0000000000000","MEAN_ELEMENT_THEORY":"SGP4","MEAN_MOTION":"15.06392100"}];
